[{"OBJECT_NAME":"STARLINK-4778","OBJECT_ID":"2022-114U","EPOCH":"2026-03-09T20:31:14.377728","MEAN_MOTION":15.08832122,"ECCENTRICITY":0.0001306,"INCLINATION":53.2188,"RA_OF_ASC_NODE":293.579,"ARG_OF_PERICENTER":85.4785,"MEAN_ANOMALY":274.6356,"EPHEMERIS_TYPE":0,"CLASSIFICATION_TYPE":"U","NORAD_CAT_ID":53836,"ELEMENT_SET_NO":999,"REV_AT_EPOCH":19299,"BSTAR":-0.00018423383,"MEAN_MOTION_DOT":-3.218e-5,"MEAN_MOTION_DDOT":0},{"OBJECT_NAME":"FENGYUN 1C DEB","OBJECT_ID":"1999-025DXL","EPOCH":"2026-02-25T04:10:22.321344","MEAN_MOTION":15.11307044,"ECCENTRICITY":0.00591738,"INCLINATION":99.4273,"RA_OF_ASC_NODE":43.0945,"ARG_OF_PERICENTER":165.3437,"MEAN_ANOMALY":194.9519,"EPHEMERIS_TYPE":0,"CLASSIFICATION_TYPE":"U","NORAD_CAT_ID":36283,"ELEMENT_SET_NO":999,"REV_AT_EPOCH":67788,"BSTAR":0.0012995165,"MEAN_MOTION_DOT":0.00022794,"MEAN_MOTION_DDOT":0}]
